import type { NormalizedOmmRecord } from '../types.js';

export const validOmm: NormalizedOmmRecord = {
  OBJECT_NAME: 'ISS SAMPLE',
  OBJECT_ID: '1998-067A',
  EPOCH: '2025-03-26T06:00:00.000000',
  MEAN_MOTION: 15.50015342,
  ECCENTRICITY: 0.0006821,
  INCLINATION: 51.6396,
  RA_OF_ASC_NODE: 12.6042,
  ARG_OF_PERICENTER: 74.2134,
  MEAN_ANOMALY: 31.9288,
  EPHEMERIS_TYPE: 0,
  CLASSIFICATION_TYPE: 'U',
  NORAD_CAT_ID: 25544,
  OBJECT_TYPE: 'PAYLOAD',
  COUNTRY_CODE: 'US',
  LAUNCH_DATE: '1998-11-20',
  SITE: 'TYMSC',
  RCS_SIZE: 'LARGE',
  PERIOD: 92.902,
  APOAPSIS: 424.75,
  PERIAPSIS: 415.25,
  ELEMENT_SET_NO: 999,
  REV_AT_EPOCH: 46321,
  BSTAR: 0.00020123,
  MEAN_MOTION_DOT: 0.00010245,
  MEAN_MOTION_DDOT: 0,
};

export const secondValidOmm: NormalizedOmmRecord = {
  ...validOmm,
  OBJECT_NAME: 'HELIOS 2A',
  OBJECT_ID: '2004-049A',
  EPOCH: '2025-03-26T05:19:34.116960',
  NORAD_CAT_ID: 28492,
  MEAN_MOTION: 15.00555103,
  ECCENTRICITY: 0.000583,
  INCLINATION: 98.3164,
  RA_OF_ASC_NODE: 103.8411,
  ARG_OF_PERICENTER: 20.5667,
  MEAN_ANOMALY: 339.5789,
  BSTAR: 0.00048021,
  MEAN_MOTION_DOT: 0.00005995,
  MEAN_MOTION_DDOT: 0,
};
